[{"OBJECT_NAME":"VSP RF B1","OBJECT_ID":"2024-043AR","EPOCH":"2026-03-09T22:40:29.479296","MEAN_MOTION":15.26694159,"ECCENTRICITY":0.00102608,"INCLINATION":97.5446,"RA_OF_ASC_NODE":204.7052,"ARG_OF_PERICENTER":220.7435,"MEAN_ANOMALY":139.3037,"EPHEMERIS_TYPE":0,"CLASSIFICATION_TYPE":"U","NORAD_CAT_ID":59137,"ELEMENT_SET_NO":999,"REV_AT_EPOCH":11187,"BSTAR":0.00024406819,"MEAN_MOTION_DOT":6.341e-5,"MEAN_MOTION_DDOT":0},{"OBJECT_NAME":"STARLINK-36543","OBJECT_ID":"2026-012Y","EPOCH":"2026-03-09T23:06:20.124288","MEAN_MOTION":15.27583112,"ECCENTRICITY":7.498e-5,"INCLINATION":42.9985,"RA_OF_ASC_NODE":312.8495,"ARG_OF_PERICENTER":251.8821,"MEAN_ANOMALY":108.1949,"EPHEMERIS_TYPE":0,"CLASSIFICATION_TYPE":"U","NORAD_CAT_ID":67515,"ELEMENT_SET_NO":999,"REV_AT_EPOCH":780,"BSTAR":0.00090729604,"MEAN_MOTION_DOT":0.00024791,"MEAN_MOTION_DDOT":0}]
